{
  "type": "FeatureCollection",
  "features": [
    {
      "type": "Feature",
      "properties": {
        "norad_id": 33376,
        "name": "GALAXY 19 (G-19)",
        "group": "intelsat",
        "lat": -0.03870473875967904,
        "lon": -90.08680711824687,
        "alt_km": 35775.82139701262,
        "timestamp": "2025-12-14T18:52:55.165807+00:00",
        "meta_object_name": "GALAXY 19 (G-19)",
        "meta_object_id": "2008-045A",
        "meta_epoch": "2025-12-13T21:32:59.019648",
        "meta_mean_motion": 1.00269817,
        "meta_eccentricity": 0.00025666,
        "meta_inclination": 0.02,
        "meta_ra_of_asc_node": 3.8233,
        "meta_arg_of_pericenter": 262.7059,
        "meta_mean_anomaly": 42.5384,
        "meta_ephemeris_type": 0,
        "meta_classification_type": "U",
        "meta_norad_cat_id": 33376,
        "meta_element_set_no": 999,
        "meta_rev_at_epoch": 6304,
        "meta_bstar": 0,
        "meta_mean_motion_dot": 0,
        "meta_mean_motion_ddot": 0,
        "tle_line1": "1 33376U 08045A   25347.89790532  .00000000  00000+0  00000+0 0  9991",
        "tle_line2": "2 33376   0.0200   3.8233 0002566 262.7059  42.5384  1.00269817 63048"
      },
      "geometry": {
        "type": "Point",
        "coordinates": [
          -90.08680711824687,
          -0.03870473875967904
        ]
      }
    },
    {
      "type": "Feature",
      "properties": {
        "norad_id": 35493,
        "name": "FM-5",
        "group": "intelsat",
        "lat": -0.014039283894564415,
        "lon": -79.21380378171516,
        "alt_km": 35787.93544170355,
        "timestamp": "2025-12-14T18:52:55.165819+00:00",
        "meta_object_name": "FM-5",
        "meta_object_id": "2009-034A",
        "meta_epoch": "2025-12-13T21:35:58.733376",
        "meta_mean_motion": 1.00271728,
        "meta_eccentricity": 8.552e-05,
        "meta_inclination": 0.0194,
        "meta_ra_of_asc_node": 288.5437,
        "meta_arg_of_pericenter": 232.5781,
        "meta_mean_anomaly": 159.5571,
        "meta_ephemeris_type": 0,
        "meta_classification_type": "U",
        "meta_norad_cat_id": 35493,
        "meta_element_set_no": 999,
        "meta_rev_at_epoch": 4478,
        "meta_bstar": 0,
        "meta_mean_motion_dot": -1.84e-06,
        "meta_mean_motion_ddot": 0,
        "tle_line1": "1 35493U 09034A   25347.89998534 -.00000184  00000+0  00000+0 0  9998",
        "tle_line2": "2 35493   0.0194 288.5437 0000855 232.5781 159.5571  1.00271728 44787"
      },
      "geometry": {
        "type": "Point",
        "coordinates": [
          -79.21380378171516,
          -0.014039283894564415
        ]
      }
    },
    {
      "type": "Feature",
      "properties": {
        "norad_id": 36097,
        "name": "INTELSAT 14 (IS-14)",
        "group": "intelsat",
        "lat": -0.02208839880789382,
        "lon": -38.05076143228017,
        "alt_km": 35780.0104938961,
        "timestamp": "2025-12-14T18:52:55.165831+00:00",
        "meta_object_name": "INTELSAT 14 (IS-14)",
        "meta_object_id": "2009-064A",
        "meta_epoch": "2025-12-13T21:47:42.609120",
        "meta_mean_motion": 1.00271954,
        "meta_eccentricity": 0.00024509,
        "meta_inclination": 0.0188,
        "meta_ra_of_asc_node": 40.528,
        "meta_arg_of_pericenter": 227.6536,
        "meta_mean_anomaly": 96.5863,
        "meta_ephemeris_type": 0,
        "meta_classification_type": "U",
        "meta_norad_cat_id": 36097,
        "meta_element_set_no": 999,
        "meta_rev_at_epoch": 5874,
        "meta_bstar": 0,
        "meta_mean_motion_dot": -2.57e-06,
        "meta_mean_motion_ddot": 0,
        "tle_line1": "1 36097U 09064A   25347.90813205 -.00000257  00000+0  00000+0 0  9996",
        "tle_line2": "2 36097   0.0188  40.5280 0002450 227.6536  96.5863  1.00271954 58745"
      },
      "geometry": {
        "type": "Point",
        "coordinates": [
          -38.05076143228017,
          -0.02208839880789382
        ]
      }
    },
    {
      "type": "Feature",
      "properties": {
        "norad_id": 36106,
        "name": "INTELSAT 15 (IS-15)",
        "group": "intelsat",
        "lat": 0.02172969295387791,
        "lon": 92.07519118625093,
        "alt_km": 35795.57920069607,
        "timestamp": "2025-12-14T18:52:55.165843+00:00",
        "meta_object_name": "INTELSAT 15 (IS-15)",
        "meta_object_id": "2009-067A",
        "meta_epoch": "2025-12-13T23:19:38.640864",
        "meta_mean_motion": 1.002722,
        "meta_eccentricity": 0.00022617,
        "meta_inclination": 0.0161,
        "meta_ra_of_asc_node": 300.7776,
        "meta_arg_of_pericenter": 330.5961,
        "meta_mean_anomaly": 246.5888,
        "meta_ephemeris_type": 0,
        "meta_classification_type": "U",
        "meta_norad_cat_id": 36106,
        "meta_element_set_no": 999,
        "meta_rev_at_epoch": 3937,
        "meta_bstar": 0,
        "meta_mean_motion_dot": -1.69e-06,
        "meta_mean_motion_ddot": 0,
        "tle_line1": "1 36106U 09067A   25347.97197501 -.00000169  00000+0  00000+0 0  9993",
        "tle_line2": "2 36106   0.0161 300.7776 0002261 330.5961 246.5888  1.00272200 39371"
      },
      "geometry": {
        "type": "Point",
        "coordinates": [
          92.07519118625093,
          0.02172969295387791
        ]
      }
    },
    {
      "type": "Feature",
      "properties": {
        "norad_id": 36131,
        "name": "DIRECTV 12",
        "group": "intelsat",
        "lat": 0.00703888352780136,
        "lon": -95.80364555007701,
        "alt_km": 35786.466156499024,
        "timestamp": "2025-12-14T18:52:55.165856+00:00",
        "meta_object_name": "DIRECTV 12",
        "meta_object_id": "2009-075A",
        "meta_epoch": "2025-12-13T21:31:14.187072",
        "meta_mean_motion": 1.00270927,
        "meta_eccentricity": 3.992e-05,
        "meta_inclination": 0.0436,
        "meta_ra_of_asc_node": 150.2562,
        "meta_arg_of_pericenter": 208.41,
        "meta_mean_anomaly": 304.2492,
        "meta_ephemeris_type": 0,
        "meta_classification_type": "U",
        "meta_norad_cat_id": 36131,
        "meta_element_set_no": 999,
        "meta_rev_at_epoch": 4469,
        "meta_bstar": 0,
        "meta_mean_motion_dot": -8.7e-07,
        "meta_mean_motion_ddot": 0,
        "tle_line1": "1 36131U 09075A   25347.89669198 -.00000087  00000+0  00000+0 0  9996",
        "tle_line2": "2 36131   0.0436 150.2562 0000399 208.4100 304.2492  1.00270927 44691"
      },
      "geometry": {
        "type": "Point",
        "coordinates": [
          -95.80364555007701,
          0.00703888352780136
        ]
      }
    },
    {
      "type": "Feature",
      "properties": {
        "norad_id": 36397,
        "name": "INTELSAT 16 (IS-16)",
        "group": "intelsat",
        "lat": -0.01720410762982741,
        "lon": -69.2641900802018,
        "alt_km": 35778.380895329174,
        "timestamp": "2025-12-14T18:52:55.165868+00:00",
        "meta_object_name": "INTELSAT 16 (IS-16)",
        "meta_object_id": "2010-006A",
        "meta_epoch": "2025-12-13T21:38:50.957952",
        "meta_mean_motion": 1.002719,
        "meta_eccentricity": 0.00020206,
        "meta_inclination": 0.0083,
        "meta_ra_of_asc_node": 323.6985,
        "meta_arg_of_pericenter": 302.0831,
        "meta_mean_anomaly": 65.5647,
        "meta_ephemeris_type": 0,
        "meta_classification_type": "U",
        "meta_norad_cat_id": 36397,
        "meta_element_set_no": 999,
        "meta_rev_at_epoch": 5779,
        "meta_bstar": 0,
        "meta_mean_motion_dot": -2.28e-06,
        "meta_mean_motion_ddot": 0,
        "tle_line1": "1 36397U 10006A   25347.90197868 -.00000228  00000+0  00000+0 0  9995",
        "tle_line2": "2 36397   0.0083 323.6985 0002020 302.0831  65.5647  1.00271900 57799"
      },
      "geometry": {
        "type": "Point",
        "coordinates": [
          -69.2641900802018,
          -0.01720410762982741
        ]
      }
    },
    {
      "type": "Feature",
      "properties": {
        "norad_id": 37185,
        "name": "XM-5",
        "group": "intelsat",
        "lat": -0.03925650230658088,
        "lon": -108.25162660566916,
        "alt_km": 35787.75278513486,
        "timestamp": "2025-12-14T18:52:55.165880+00:00",
        "meta_object_name": "XM-5",
        "meta_object_id": "2010-053A",
        "meta_epoch": "2025-12-13T21:27:44.521920",
        "meta_mean_motion": 1.00271123,
        "meta_eccentricity": 0.00018494,
        "meta_inclination": 0.0622,
        "meta_ra_of_asc_node": 272.3833,
        "meta_arg_of_pericenter": 238.252,
        "meta_mean_anomaly": 138.9302,
        "meta_ephemeris_type": 0,
        "meta_classification_type": "U",
        "meta_norad_cat_id": 37185,
        "meta_element_set_no": 999,
        "meta_rev_at_epoch": 5562,
        "meta_bstar": 0,
        "meta_mean_motion_dot": -7e-08,
        "meta_mean_motion_ddot": 0,
        "tle_line1": "1 37185U 10053A   25347.89426530 -.00000007  00000+0  00000+0 0  9997",
        "tle_line2": "2 37185   0.0622 272.3833 0001849 238.2520 138.9302  1.00271123 55629"
      },
      "geometry": {
        "type": "Point",
        "coordinates": [
          -108.25162660566916,
          -0.03925650230658088
        ]
      }
    }
  ]
}